[{"OBJECT_NAME":"STARLINK-3839","OBJECT_ID":"2022-049AF","EPOCH":"2026-03-09T23:01:34.141152","MEAN_MOTION":15.08835969,"ECCENTRICITY":0.00013007,"INCLINATION":53.2162,"RA_OF_ASC_NODE":57.9097,"ARG_OF_PERICENTER":88.8633,"MEAN_ANOMALY":271.2508,"EPHEMERIS_TYPE":0,"CLASSIFICATION_TYPE":"U","NORAD_CAT_ID":52480,"ELEMENT_SET_NO":999,"REV_AT_EPOCH":21229,"BSTAR":-0.00043773734,"MEAN_MOTION_DOT":-7.247e-5,"MEAN_MOTION_DDOT":0},{"OBJECT_NAME":"PSLV DEB","OBJECT_ID":"2001-049CY","EPOCH":"2026-03-09T18:20:37.296384","MEAN_MOTION":15.08389698,"ECCENTRICITY":0.00190632,"INCLINATION":97.9861,"RA_OF_ASC_NODE":156.2845,"ARG_OF_PERICENTER":340.3269,"MEAN_ANOMALY":19.722,"EPHEMERIS_TYPE":0,"CLASSIFICATION_TYPE":"U","NORAD_CAT_ID":27152,"ELEMENT_SET_NO":999,"REV_AT_EPOCH":30598,"BSTAR":0.00053695108,"MEAN_MOTION_DOT":8.318e-5,"MEAN_MOTION_DDOT":0}]
